ISS (ZARYA)             
1 25544U 98067A   26200.18563955  .00004087  00000+0  82168-4 0  9999
2 25544  51.6318 141.7399 0006797 313.2287  46.8133 15.49047695576716
OSCAR 7 (AO-7)          
1 07530U 74089B   26200.29390324 -.00000047  00000+0 -65919-5 0  9992
2 07530 101.9907 213.8752 0012639  70.7839 316.5159 12.53698642364545
PHASE 3B (AO-10)        
1 14129U 83058B   26198.95931596 -.00000201  00000+0  00000+0 0  9996
2 14129  25.9392 214.4954 6000614 124.1231 307.7423  2.05871393296123
UOSAT 2 (UO-11)         
1 14781U 84021B   26199.90130879  .00000593  00000+0  65892-4 0  9990
2 14781  97.8079 165.1270 0009234  81.1376 279.0887 14.90853808261858
LUSAT (LO-19)           
1 20442U 90005G   26199.99640059  .00000023  00000+0  24886-4 0  9991
2 20442  98.8846 222.6774 0012621 111.2051 249.0482 14.34131374906959
EYESAT A (AO-27)        
1 22825U 93061C   26200.16474111  .00000029  00000+0  27888-4 0  9990
2 22825  98.6864 267.5640 0008539  14.7402 345.4028 14.30949715711575
ITAMSAT (IO-26)         
1 22826U 93061D   26200.13460755  .00000027  00000+0  26964-4 0  9999
2 22826  98.6813 267.4547 0008713 357.6631   2.4509 14.31377398711883
RADIO ROSTO (RS15)      
1 23439U 94085A   26200.22143014 -.00000038  00000+0  12722-3 0  9992
2 23439  64.8144 251.4089 0157073 357.9682   2.0587 11.27583551299518
JAS-2 (FO-29)           
1 24278U 96046B   26200.10218667 -.00000041  00000+0 -53200-5 0  9990
2 24278  98.5218  44.5993 0350173  13.8163 347.2268 13.53275823477484
TECHSAT 1B (GO-32)      
1 25397U 98043D   26200.23561672 -.00000001  00000+0  19588-4 0  9998
2 25397  99.0088 193.8054 0002289 108.9690 251.1736 14.24433774455891
PCSAT (NO-44)           
1 26931U 01043C   26200.28807483  .00000025  00000+0  40157-4 0  9996
2 26931  67.0498 161.2434 0005870 266.8644  93.1786 14.31965883295046
SAUDISAT 1C (SO-50)     
1 27607U 02058C   26199.91526245  .00000381  00000+0  63019-4 0  9992
2 27607  64.5520  30.8141 0074413 256.5934 102.6870 14.83102458269160
CUTE-1 (CO-55)          
1 27844U 03031E   26199.99981041  .00000124  00000+0  72664-4 0  9995
2 27844  98.6744 208.1594 0010865  92.9112 267.3310 14.24352932196203
CUBESAT XI-IV (CO-57)   
1 27848U 03031J   26200.00426191  .00000102  00000+0  63832-4 0  9997
2 27848  98.6776 207.8508 0010644 109.4157 250.8172 14.23635739195908
MOZHAETS 4 (RS22)       
1 27939U 03042A   26200.34337101  .00000094  00000+0  22796-4 0  9993
2 27939  98.3477  25.6122 0011548 160.2032 321.9217 14.73517034220285
CUBESAT XI-V            
1 28895U 05043F   26199.92883852  .00000633  00000+0  10736-3 0  9997
2 28895  98.3021 356.2245 0015330 104.4100 255.8810 14.72707615106428
CUTE-1.7+APD II (CO-65) 
1 32785U 08021C   26200.26403866  .00001957  00000+0  12557-3 0  9995
2 32785  97.8299 182.3602 0006828 282.4955  77.5509 15.09720397990039
SEEDS II (CO-66)        
1 32791U 08021J   26199.98310008  .00009804  00000+0  30294-3 0  9990
2 32791  97.7533 199.4257 0003507 148.4527 211.6925 15.33744548992168
YUBILEINY (RS30)        
1 32953U 08025A   26200.28969529  .00000076  00000+0  47511-3 0  9990
2 32953  82.5071 335.4698 0018714 239.5456 120.3776 12.43180945823680
KKS-1 (KISEKI)          
1 33499U 09002H   26200.23475659  .00000606  00000+0  81048-4 0  9996
2 33499  98.1171 123.1847 0007756 175.6616 184.4666 14.83194466940947
SWISSCUBE               
1 35932U 09051B   26200.18738039  .00000443  00000+0  97058-4 0  9999
2 35932  98.4003 108.6297 0008002 108.4098 251.7974 14.62534889893837
BEESAT-1                
1 35933U 09051C   26200.21356386  .00000364  00000+0  82911-4 0  9999
2 35933  98.3928 108.2244 0006325 119.4763 240.7069 14.61765362893865
ITUPSAT1                
1 35935U 09051E   26199.68445378  .00000317  00000+0  75415-4 0  9998
2 35935  98.4014 106.8454 0008288 133.4128 226.7763 14.60481463893335
XIWANG-1 (HOPE-1)       
1 36122U 09072B   26200.31550806  .00000131  00000+0  45939-3 0  9997
2 36122 100.4043 153.6372 0007663 155.6615 204.4861 13.16439937797235
O/OREOS (USA 219)       
1 37224U 10062C   26199.87143271  .00000973  00000+0  97460-4 0  9995
2 37224  71.9700   8.5594 0014218 357.9749   2.1362 14.93859325121372
JUGNU                   
1 37839U 11058B   26200.12135484  .00000352  00000+0  44497-4 0  9994
2 37839  19.9601 114.4089 0018621  69.5646 319.8172 14.13784159763559
SRMSAT                  
1 37841U 11058D   26200.32158470  .00000324  00000+0  31721-4 0  9994
2 37841  19.9703 224.9688 0011632 196.6328 264.6443 14.11581571762368
STRAND-1                
1 39090U 13009E   26200.29069826  .00000113  00000+0  52406-4 0  9991
2 39090  98.3938  19.7374 0009604 130.0819 230.1212 14.37180228701673
ZACUBE-1 (TSHEPISOSAT)  
1 39417U 13066B   26199.86699965  .00001274  00000+0  10187-3 0  9998
2 39417  97.8003 162.3585 0044064 143.4154 217.0094 15.01338468685486
GOMX-1                  
1 39430U 13066Q   26200.25653964  .00000530  00000+0  86687-4 0  9991
2 39430  97.6463  38.6950 0127868 335.1393  24.3688 14.69547500674623
